SHIYAN-1 (SY-1)         
1 28220U 04012A   26068.73650539  .00016393  00000+0  54854-3 0  9991
2 28220  97.8764 140.5238 0005873  23.6952 336.4557 15.31043463195862
STARLINK-1153           
1 45080U 20006AN  26068.80847146 -.00004860  00000+0 -15625-3 0  9996
2 45080  53.1601 257.2166 0000819  65.4906 294.6179 15.29349548336899
